STARLINK-31377          
1 58938U 24027H   24051.83334491 -.01170818  00000+0 -88272-2 0  9991
2 58938  53.1657 183.6579 0000701  62.6381 319.8706 15.74611916  2574
STARLINK-31372          
1 58939U 24027J   24051.83334491 -.01179673  00000+0 -89140-2 0  9995
2 58939  53.1657 183.6537 0000771  59.7601 324.8248 15.74581531  2620
STARLINK-31371          
1 58940U 24027K   24051.83334491 -.01182812  00000+0 -89304-2 0  9998
2 58940  53.1656 183.6496 0000708  54.7812 331.7634 15.74608481  2679
STARLINK-31345          
1 58941U 24027L   24051.83334491 -.01196350  00000+0 -90641-2 0  9997
2 58941  53.1654 183.6451 0000970  48.0904 340.5682 15.74559646  2677
STARLINK-31354          
1 58942U 24027M   24051.83334491 -.01201787  00000+0 -91315-2 0  9998
2 58942  53.1655 183.6406 0000810  55.2052 335.5592 15.74509019  2679
STARLINK-31346          
1 58943U 24027N   24051.83334491 -.01207954  00000+0 -91833-2 0  9996
2 58943  53.1655 183.6363 0000853  58.0965 334.6774 15.74511484  2629
STARLINK-31336          
1 58944U 24027P   24051.83334491 -.01237201  00000+0 -92696-2 0  9993
2 58944  53.1654 183.6321 0000959  65.3688 329.4992 15.74465145  2674
STARLINK-31359          
1 58945U 24027Q   24051.83334491 -.01211160  00000+0 -92383-2 0  9993
2 58945  53.1651 183.6276 0001219  55.5415 341.3744 15.74439778  2671
STARLINK-31331          
1 58946U 24027R   24051.83334491 -.01247107  00000+0 -93506-2 0  9992
2 58946  53.1650 183.6232 0000951  59.2644 339.6216 15.74468706  2576
STARLINK-31116          
1 58947U 24027S   24051.83334491 -.01234307  00000+0 -92697-2 0  9991
2 58947  53.1650 183.6190 0000777  54.2384 346.7487 15.74407052  2411
STARLINK-31311          
1 58948U 24027T   24051.83334491 -.01247698  00000+0 -93812-2 0  9999
2 58948  53.1652 183.6149 0000781  46.9074 356.0956 15.74407532  2369
STARLINK-31294          
1 58949U 24027U   24051.83334491 -.01199979  00000+0 -91819-2 0  9993
2 58949  53.1653 183.6106 0000881  44.1874   0.9057 15.74343780  2678
STARLINK-31287          
1 58950U 24027V   24051.83334491  .00775819  28150-3  16438-2 0  9999
2 58950  53.1650 183.0842 0005252 353.8047 306.7498 15.98203277  2417
STARLINK-31330          
1 58951U 24027W   24051.83334491 -.01203644  00000+0 -92331-2 0  9991
2 58951  53.1653 183.5980 0001091  46.6069   4.5859 15.74293270  2675
STARLINK-31293          
1 58952U 24027X   24051.83334491 -.01186332  00000+0 -90798-2 0  9991
2 58952  53.1655 183.6065 0000956  54.2521 352.9020 15.74303664  2578
